[{"OBJECT_NAME":"STARLINK-2695","OBJECT_ID":"2021-044G","EPOCH":"2026-03-09T09:50:29.031072","MEAN_MOTION":15.3020115,"ECCENTRICITY":0.0001433,"INCLINATION":53.1595,"RA_OF_ASC_NODE":115.3558,"ARG_OF_PERICENTER":76.772,"MEAN_ANOMALY":283.3441,"EPHEMERIS_TYPE":0,"CLASSIFICATION_TYPE":"U","NORAD_CAT_ID":48644,"ELEMENT_SET_NO":999,"REV_AT_EPOCH":26378,"BSTAR":5.9383872e-5,"MEAN_MOTION_DOT":1.4e-5,"MEAN_MOTION_DDOT":0},{"OBJECT_NAME":"JD 1","OBJECT_ID":"1984-012C","EPOCH":"2026-03-09T23:30:21.347136","MEAN_MOTION":13.74166667,"ECCENTRICITY":0.07563161,"INCLINATION":63.3111,"RA_OF_ASC_NODE":313.7014,"ARG_OF_PERICENTER":126.7081,"MEAN_ANOMALY":240.5908,"EPHEMERIS_TYPE":0,"CLASSIFICATION_TYPE":"U","NORAD_CAT_ID":14728,"ELEMENT_SET_NO":999,"REV_AT_EPOCH":33001,"BSTAR":0.00047185243,"MEAN_MOTION_DOT":3.937e-5,"MEAN_MOTION_DDOT":0}]
